#aV2023  3 23  0  0  0.00000000     288 DD+AD WGS84 FIT  NGA
## 2254 345600.00000000   300.00000000 60026 0.0000000000000
+   32     1  2  3  4  5  6  7  8  9 10 11 12 13 14 15 16 17
+         18 19 20 21 22 23 24 25 26 27 28 29 30 31 32  0  0
+          0  0  0  0  0  0  0  0  0  0  0  0  0  0  0  0  0
+          0  0  0  0  0  0  0  0  0  0  0  0  0  0  0  0  0
+          0  0  0  0  0  0  0  0  0  0  0  0  0  0  0  0  0
++         2  2  2  2  2  2  2  2  2  2  2  2  2  2  2  2  2
++         2  2  2  2  2  2  2  2  2  2  2  2  2  2  2  0  0
++         0  0  0  0  0  0  0  0  0  0  0  0  0  0  0  0  0
++         0  0  0  0  0  0  0  0  0  0  0  0  0  0  0  0  0
++         0  0  0  0  0  0  0  0  0  0  0  0  0  0  0  0  0
%c cc cc ccc ccc cccc cccc cccc cccc ccccc ccccc ccccc ccccc
%c cc cc ccc ccc cccc cccc cccc cccc ccccc ccccc ccccc ccccc
%f  0.0000000  0.000000000  0.00000000000  0.000000000000000
%f  0.0000000  0.000000000  0.00000000000  0.000000000000000
%i    0    0    0    0      0      0      0      0         0
%i    0    0    0    0      0      0      0      0         0
/*      NGA, ST. LOUIS,MO.                                  
/*   EPHEMERIS COMPUTED FROM 2 DAYS OF DATA                 
/*   EPOCHA v8 SMOOTHER                                     
/*   G2139 IERS2010 SATIGS SATAPC                           
*  2023  3 23 15 35  0.00000000
P  1   9921.560482 -19630.088527 -14945.228378    199.967342                    
V  1  15751.054986  -9822.207415  24217.894492     -0.036592                    
P  2  -5335.752394  20494.077964  16797.667297   -612.163845                    
V  2 -15765.699423  12475.381255 -20777.779635      0.029033                    
P  3    -57.862365 -15728.175291 -21544.857896   -344.498268                    
V  3  25131.464720   9860.612229  -7192.809295      0.070563                    
P  4    723.622954 -26063.481758  -4727.120884     -0.412360                    
V  4   3377.944977   5729.159350 -31107.132940      0.088252                    
P  5 -16619.908520   8010.789180  18980.229676   -120.584819                    
V  5 -22536.235940  -9466.563131 -15481.956099     -0.014732                    
P  6 -20082.725397    920.628217 -17343.130923    583.253721                    
V  6  16871.193803 -14242.464021 -20121.105816      0.024471                    
P  7  -4590.422968 -15658.226743  21322.050525    217.124611                    
V  7  21298.761668 -15243.680451  -7237.120487     -0.079781                    
P  8   7842.710512 -19817.342684  15529.081855   -114.314678                    
V  8   5411.520442  19388.965638  22303.546877     -0.017586                    
P  9  -7840.618978 -24717.167289   5564.502206   -194.895079                    
V  9   1789.069145  -7537.411342 -30609.999114      0.076122                    
P 10  24047.988322  11479.064609   2276.638895    -29.747570                    
V 10  -3207.476062    859.848323  31744.627406     -0.015928                    
P 11 -23291.800181  11425.004712  -5603.612521   -139.189903                    
V 11   4369.113526  -6213.925134 -30808.083563     -0.117406                    
P 12  -3403.451692  15163.588762 -21829.640051   -355.043837                    
V 12 -24347.091287 -11732.276441  -4318.911135     -0.046272                    
P 13 -12974.055492  13141.135926  18839.321766    494.893032                    
V 13  -1321.949463 -24341.173758  16113.725199      0.057557                    
P 14 -22437.675712 -13626.885534   4506.899114      3.969937                    
V 14   6432.961934   -403.393598  30713.147674      0.105672                    
P 15  -5352.370147  21110.212846  14567.589625     24.125560                    
V 15  -8124.966466 -17951.981301  22608.142665      0.033801                    
P 16  19499.478693  -3593.990635  17583.381598   -513.681723                    
V 16  19555.351776  11716.850616 -18516.896260      0.023392                    
P 17 -12584.587032 -15682.493021 -16871.943246    706.986391                    
V 17     94.713928 -22327.551842  20271.589628      0.019475                    
P 18   7675.935535  12864.037781  21928.471837   -192.208784                    
V 18 -22446.268376  16412.247647  -1912.369872     -0.165418                    
P 19 -14819.353215  -5599.357348 -21589.080600    293.908135                    
V 19   -337.932723 -26789.374842   6982.401187      0.050900                    
P 20 -23600.304389   3185.167087  11585.494123    443.260318                    
V 20 -13754.621490  -6076.676509 -26625.004443     -0.023297                    
P 21  15789.866705 -19844.599380  -5663.888710    154.332737                    
V 21   8326.305259  -2907.187188  31200.938012     -0.000099                    
P 22  15013.188656   1527.172042 -21422.108948    450.713532                    
V 22   1234.482373  28223.321339   2656.472529      0.071746                    
P 23  17080.753014  15840.576018  12897.879736     12.266324                    
V 23 -15906.444523  -3995.560288  25839.256593      0.022110                    
P 24 -11783.659157  21314.434392 -10427.633461   -123.270754                    
V 24 -11833.469215   6233.102699  27447.391787     -0.151184                    
P 25   8456.540495  17514.764435 -18522.035180    429.982320                    
V 25 -21701.477770  -7136.374035 -16677.267944      0.029989                    
P 26  25637.871571   3415.912052   6662.020561    241.979441                    
V 26   7093.733161   5772.356467 -29398.800997     -0.000160                    
P 27  13238.388793  -9035.183250  20856.051135     74.736985                    
V 27   4622.036388  26734.461059   8956.103181     -0.083297                    
P 28  19243.949298    627.833151 -18321.723405     50.238788                    
V 28 -16899.516898  15972.052388 -17235.607983      0.090024                    
P 29   3122.412413  26216.450866   2398.169873   -592.207944                    
V 29  -2174.757217   3238.814048 -31978.628383     -0.018399                    
P 30 -15940.773416  -6707.673871  20320.728401   -525.696944                    
V 30  19813.685458 -16251.924943   9965.480862      0.016199                    
P 31  22373.584204  -3903.800040 -14307.629810   -212.291479                    
V 31 -13123.665571  12040.638122 -23660.649812     -0.009020                    
P 32  14685.298461  12419.865854 -18229.929077   -431.613589                    
V 32   1848.029502  23409.225640  17075.627762     -0.106593                    
EOF
